{"type": "FeatureCollection", "features": [ {"type": "Feature", "properties": {"norad_id": 28659, "name": "DIRECTV 8", "group": "intelsat", "lat": -0.042963841391098954, "lon": -76.44559837281616, "alt_km": 35773.77587589494, "timestamp": "2025-12-22T20:43:45.510308+00:00", "meta": {"OBJECT_NAME": "DIRECTV 8", "OBJECT_ID": "2005-019A", "EPOCH": "2025-12-22T13:31:35.887584", "MEAN_MOTION": 1.00271499, "ECCENTRICITY": 0.00029249, "INCLINATION": 0.0178, "RA_OF_ASC_NODE": 16.1545, "ARG_OF_PERICENTER": 265.3877, "MEAN_ANOMALY": 253.6824, "EPHEMERIS_TYPE": 0, "CLASSIFICATION_TYPE": "U", "NORAD_CAT_ID": 28659, "ELEMENT_SET_NO": 999, "REV_AT_EPOCH": 7530, "BSTAR": 0, "MEAN_MOTION_DOT": 2.3e-07, "MEAN_MOTION_DDOT": 0}, "tle": {"line1": "1 28659U 05019A   25356.56360981  .00000023  00000+0  00000+0 0  9997", "line2": "2 28659   0.0178  16.1545 0002924 265.3877 253.6824  1.00271499 75303"}}, "geometry": {"type": "Point", "coordinates": [-76.44559837281616, -0.042963841391098954]}}, {"type": "Feature", "properties": {"norad_id": 28702, "name": "GALAXY 28 (G-28)", "group": "intelsat", "lat": -2.2863354677882692, "lon": -46.105723249601226, "alt_km": 35777.019762176446, "timestamp": "2025-12-22T20:43:45.510319+00:00", "meta": {"OBJECT_NAME": "GALAXY 28 (G-28)", "OBJECT_ID": "2005-022A", "EPOCH": "2025-12-20T00:49:30.482112", "MEAN_MOTION": 1.00271047, "ECCENTRICITY": 0.00029384, "INCLINATION": 2.8382, "RA_OF_ASC_NODE": 81.1982, "ARG_OF_PERICENTER": 194.0723, "MEAN_ANOMALY": 97.2981, "EPHEMERIS_TYPE": 0, "CLASSIFICATION_TYPE": "U", "NORAD_CAT_ID": 28702, "ELEMENT_SET_NO": 999, "REV_AT_EPOCH": 5017, "BSTAR": 0, "MEAN_MOTION_DOT": -1.65e-06, "MEAN_MOTION_DDOT": 0}, "tle": {"line1": "1 28702U 05022A   25354.03438058 -.00000165  00000+0  00000+0 0  9999", "line2": "2 28702   2.8382  81.1982 0002938 194.0723  97.2981  1.00271047 50172"}}, "geometry": {"type": "Point", "coordinates": [-46.105723249601226, -2.2863354677882692]}}, {"type": "Feature", "properties": {"norad_id": 29236, "name": "GALAXY 16 (G-16)", "group": "intelsat", "lat": -0.013292407673988298, "lon": -56.401057908216224, "alt_km": 35777.17801829404, "timestamp": "2025-12-22T20:43:45.510332+00:00", "meta": {"OBJECT_NAME": "GALAXY 16 (G-16)", "OBJECT_ID": "2006-023A", "EPOCH": "2025-12-22T11:53:30.894144", "MEAN_MOTION": 1.00270809, "ECCENTRICITY": 0.00025136, "INCLINATION": 0.0073, "RA_OF_ASC_NODE": 85.1256, "ARG_OF_PERICENTER": 188.1132, "MEAN_ANOMALY": 257.43, "EPHEMERIS_TYPE": 0, "CLASSIFICATION_TYPE": "U", "NORAD_CAT_ID": 29236, "ELEMENT_SET_NO": 999, "REV_AT_EPOCH": 7120, "BSTAR": 0, "MEAN_MOTION_DOT": -1.05e-06, "MEAN_MOTION_DDOT": 0}, "tle": {"line1": "1 29236U 06023A   25356.49549646 -.00000105  00000+0  00000+0 0  9996", "line2": "2 29236   0.0073  85.1256 0002513 188.1132 257.4300  1.00270809 71204"}}, "geometry": {"type": "Point", "coordinates": [-56.401057908216224, -0.013292407673988298]}}, {"type": "Feature", "properties": {"norad_id": 29494, "name": "DIRECTV 9S", "group": "intelsat", "lat": -1.2408741904392024, "lon": -58.611026566526256, "alt_km": 35775.102499381035, "timestamp": "2025-12-22T20:43:45.510344+00:00", "meta": {"OBJECT_NAME": "DIRECTV 9S", "OBJECT_ID": "2006-043A", "EPOCH": "2025-12-22T11:52:22.722816", "MEAN_MOTION": 1.00272262, "ECCENTRICITY": 0.00028762, "INCLINATION": 1.9638, "RA_OF_ASC_NODE": 83.1101, "ARG_OF_PERICENTER": 192.9933, "MEAN_ANOMALY": 252.0827, "EPHEMERIS_TYPE": 0, "CLASSIFICATION_TYPE": "U", "NORAD_CAT_ID": 29494, "ELEMENT_SET_NO": 999, "REV_AT_EPOCH": 4961, "BSTAR": 0, "MEAN_MOTION_DOT": -9.3e-07, "MEAN_MOTION_DDOT": 0}, "tle": {"line1": "1 29494U 06043A   25356.49470744 -.00000093  00000+0  00000+0 0  9992", "line2": "2 29494   1.9638  83.1101 0002876 192.9933 252.0827  1.00272262 49618"}}, "geometry": {"type": "Point", "coordinates": [-58.611026566526256, -1.2408741904392024]}}, {"type": "Feature", "properties": {"norad_id": 31307, "name": "GALAXY 17 (G-17)", "group": "intelsat", "lat": -2.099950407274431, "lon": -42.35558627942776, "alt_km": 35777.00565730616, "timestamp": "2025-12-22T20:43:45.510356+00:00", "meta": {"OBJECT_NAME": "GALAXY 17 (G-17)", "OBJECT_ID": "2007-016B", "EPOCH": "2025-12-22T11:02:57.778080", "MEAN_MOTION": 1.00269858, "ECCENTRICITY": 0.00053472, "INCLINATION": 2.5228, "RA_OF_ASC_NODE": 82.176, "ARG_OF_PERICENTER": 171.2729, "MEAN_ANOMALY": 278.576, "EPHEMERIS_TYPE": 0, "CLASSIFICATION_TYPE": "U", "NORAD_CAT_ID": 31307, "ELEMENT_SET_NO": 999, "REV_AT_EPOCH": 6803, "BSTAR": 0, "MEAN_MOTION_DOT": -1.86e-06, "MEAN_MOTION_DDOT": 0}, "tle": {"line1": "1 31307U 07016B   25356.46039095 -.00000186  00000+0  00000+0 0  9999", "line2": "2 31307   2.5228  82.1760 0005347 171.2729 278.5760  1.00269858 68038"}}, "geometry": {"type": "Point", "coordinates": [-42.35558627942776, -2.099950407274431]}}, {"type": "Feature", "properties": {"norad_id": 31862, "name": "DIRECTV 10", "group": "intelsat", "lat": -0.0024398801279025386, "lon": -60.18956679673136, "alt_km": 35784.12673583449, "timestamp": "2025-12-22T20:43:45.510367+00:00", "meta": {"OBJECT_NAME": "DIRECTV 10", "OBJECT_ID": "2007-032A", "EPOCH": "2025-12-22T10:57:50.767776", "MEAN_MOTION": 1.00276464, "ECCENTRICITY": 3.376e-05, "INCLINATION": 0.0075, "RA_OF_ASC_NODE": 110.1631, "ARG_OF_PERICENTER": 126.5501, "MEAN_ANOMALY": 276.2148, "EPHEMERIS_TYPE": 0, "CLASSIFICATION_TYPE": "U", "NORAD_CAT_ID": 31862, "ELEMENT_SET_NO": 999, "REV_AT_EPOCH": 4382, "BSTAR": 0, "MEAN_MOTION_DOT": -8.2e-07, "MEAN_MOTION_DDOT": 0}, "tle": {"line1": "1 31862U 07032A   25356.45683759 -.00000082  00000+0  00000+0 0  9999", "line2": "2 31862   0.0075 110.1631 0000337 126.5501 276.2148  1.00276464 43827"}}, "geometry": {"type": "Point", "coordinates": [-60.18956679673136, -0.0024398801279025386]}}, {"type": "Feature", "properties": {"norad_id": 32253, "name": "INTELSAT 11 (IS-11)", "group": "intelsat", "lat": 1.8611840724906916, "lon": -136.22521067378992, "alt_km": 36098.59647153544, "timestamp": "2025-12-22T20:43:45.510378+00:00", "meta": {"OBJECT_NAME": "INTELSAT 11 (IS-11)", "OBJECT_ID": "2007-044B", "EPOCH": "2025-12-22T13:30:38.567232", "MEAN_MOTION": 0.9905286, "ECCENTRICITY": 0.00085458, "INCLINATION": 3.1042, "RA_OF_ASC_NODE": 80.8681, "ARG_OF_PERICENTER": 169.83, "MEAN_ANOMALY": 225.828, "EPHEMERIS_TYPE": 0, "CLASSIFICATION_TYPE": "U", "NORAD_CAT_ID": 32253, "ELEMENT_SET_NO": 999, "REV_AT_EPOCH": 6670, "BSTAR": 0, "MEAN_MOTION_DOT": -1.21e-06, "MEAN_MOTION_DDOT": 0}, "tle": {"line1": "1 32253U 07044B   25356.56294638 -.00000121  00000+0  00000+0 0  9997", "line2": "2 32253   3.1042  80.8681 0008545 169.8300 225.8280  0.99052860 66702"}}, "geometry": {"type": "Point", "coordinates": [-136.22521067378992, 1.8611840724906916]}}, {"type": "Feature", "properties": {"norad_id": 32388, "name": "HORIZONS-2", "group": "intelsat", "lat": -1.9774963254279536, "lon": -31.162350030165836, "alt_km": 35774.243394900084, "timestamp": "2025-12-22T20:43:45.510390+00:00", "meta": {"OBJECT_NAME": "HORIZONS-2", "OBJECT_ID": "2007-063B", "EPOCH": "2025-12-22T10:14:45.259008", "MEAN_MOTION": 1.00270865, "ECCENTRICITY": 0.00046463, "INCLINATION": 2.1452, "RA_OF_ASC_NODE": 82.857, "ARG_OF_PERICENTER": 195.0469, "MEAN_ANOMALY": 253.2309, "EPHEMERIS_TYPE": 0, "CLASSIFICATION_TYPE": "U", "NORAD_CAT_ID": 32388, "ELEMENT_SET_NO": 999, "REV_AT_EPOCH": 6604, "BSTAR": 0, "MEAN_MOTION_DOT": -2.33e-06, "MEAN_MOTION_DDOT": 0}, "tle": {"line1": "1 32388U 07063B   25356.42691272 -.00000233  00000+0  00000+0 0  9991", "line2": "2 32388   2.1452  82.8570 0004646 195.0469 253.2309  1.00270865 66043"}}, "geometry": {"type": "Point", "coordinates": [-31.162350030165836, -1.9774963254279536]}}, {"type": "Feature", "properties": {"norad_id": 32729, "name": "DIRECTV 11", "group": "intelsat", "lat": -0.008283721706449315, "lon": -56.6089897539932, "alt_km": 35789.766984108675, "timestamp": "2025-12-22T20:43:45.510402+00:00", "meta": {"OBJECT_NAME": "DIRECTV 11", "OBJECT_ID": "2008-013A", "EPOCH": "2025-12-21T16:09:00.789984", "MEAN_MOTION": 1.00267418, "ECCENTRICITY": 8.567e-05, "INCLINATION": 0.0458, "RA_OF_ASC_NODE": 200.3144, "ARG_OF_PERICENTER": 330.5483, "MEAN_ANOMALY": 62.6867, "EPHEMERIS_TYPE": 0, "CLASSIFICATION_TYPE": "U", "NORAD_CAT_ID": 32729, "ELEMENT_SET_NO": 999, "REV_AT_EPOCH": 4381, "BSTAR": 0, "MEAN_MOTION_DOT": -1.03e-06, "MEAN_MOTION_DDOT": 0}, "tle": {"line1": "1 32729U 08013A   25355.67292581 -.00000103  00000+0  00000+0 0  9998", "line2": "2 32729   0.0458 200.3144 0000856 330.5483  62.6867  1.00267418 43811"}}, "geometry": {"type": "Point", "coordinates": [-56.6089897539932, -0.008283721706449315]}}, {"type": "Feature", "properties": {"norad_id": 32951, "name": "GALAXY 18 (G-18)", "group": "intelsat", "lat": -0.01953003642815973, "lon": -80.41376071067907, "alt_km": 35773.79995205355, "timestamp": "2025-12-22T20:43:45.510413+00:00", "meta": {"OBJECT_NAME": "GALAXY 18 (G-18)", "OBJECT_ID": "2008-024A", "EPOCH": "2025-12-22T10:43:38.349696", "MEAN_MOTION": 1.00271577, "ECCENTRICITY": 0.0002912, "INCLINATION": 0.0192, "RA_OF_ASC_NODE": 293.1391, "ARG_OF_PERICENTER": 343.1784, "MEAN_ANOMALY": 212.8335, "EPHEMERIS_TYPE": 0, "CLASSIFICATION_TYPE": "U", "NORAD_CAT_ID": 32951, "ELEMENT_SET_NO": 999, "REV_AT_EPOCH": 4408, "BSTAR": 0, "MEAN_MOTION_DOT": 4.7e-07, "MEAN_MOTION_DDOT": 0}, "tle": {"line1": "1 32951U 08024A   25356.44697164  .00000047  00000+0  00000+0 0  9995", "line2": "2 32951   0.0192 293.1391 0002912 343.1784 212.8335  1.00271577 44086"}}, "geometry": {"type": "Point", "coordinates": [-80.41376071067907, -0.01953003642815973]}}]}